STARLINK-31437          
1 60057U 24112V   26086.46116141  .00000550  00000+0  30688-4 0  9992
2 60057  53.1619 355.7219 0001266  91.4939 268.6206 15.30189866101310
STARLINK-11181 [DTC]    
1 60059U 24113A   26086.35298517  .00003363  00000+0  32600-4 0  9992
2 60059  53.1588 104.2700 0001332 100.9791 259.1377 15.69716555102335
STARLINK-11176 [DTC]    
1 60060U 24113B   26086.47541673  .00028538  00000+0  23933-3 0  9990
2 60060  53.1572 103.6120 0001188  85.5208 274.5945 15.69737277102357
STARLINK-11167 [DTC]    
1 60061U 24113C   26086.34317297  .00005138  00000+0  47279-4 0  9991
2 60061  53.1593 104.2073 0001356  69.6723 290.4440 15.69690098102634
STARLINK-11166 [DTC]    
1 60062U 24113D   26086.46560469  .00018403  00000+0  15630-3 0  9990
2 60062  53.1571 103.5451 0001064  75.6317 284.4819 15.69729769102355
STARLINK-11165 [DTC]    
1 60063U 24113E   26086.33336301  .00006444  00000+0  58069-4 0  9999
2 60063  53.1582 104.1403 0001102  72.9093 287.2046 15.69683983102334
STARLINK-11169 [DTC]    
1 60064U 24113F   26086.45578689  .00003127  00000+0  30632-4 0  9991
2 60064  53.1583 103.4777 0001190  84.5415 275.5738 15.69730649102358
STARLINK-11102 [DTC]    
1 60065U 24113G   26086.76924318 -.00000786  00000+0 -16311-5 0  9999
2 60065  53.1592 101.8772 0001332  80.3851 279.7317 15.69702868102409
STARLINK-11141 [DTC]    
1 60066U 24113H   26086.76433287 -.00000663  00000+0 -62712-6 0  9991
2 60066  53.1595 101.8438 0000317 111.9160 248.1892 15.69702789102408
STARLINK-11153 [DTC]    
1 60067U 24113J   26086.31384205  .00000694  00000+0  10583-4 0  9997
2 60067  53.1600 104.7435 0001215  87.6203 272.4954 15.69713284102322
STARLINK-11170 [DTC]    
1 60068U 24113K   26086.75462316  .00004168  00000+0  39238-4 0  9994
2 60068  53.1577 102.5139 0001387  95.7004 264.4172 15.69715330102396
STARLINK-11171 [DTC]    
1 60069U 24113L   26086.74971955 -.00000501  00000+0  72696-6 0  9993
2 60069  53.1589 102.4799 0001643  84.5968 275.5237 15.69709044102391
STARLINK-11186 [DTC]    
1 60070U 24113M   26086.29911312 -.00009170  00000+0 -70838-4 0  9992
2 60070  53.1579 104.6454 0001106  73.2771 286.8368 15.69733789102736
STARLINK-11184 [DTC]    
1 60071U 24113N   26086.73991404  .00010781  00000+0  93723-4 0  9998
2 60071  53.1577 102.4530 0002110  76.3496 283.7757 15.69713227102395
STARLINK-32032          
1 60077U 24113U   26086.77959164 -.00003221  00000+0 -96684-4 0  9997
2 60077  53.1597 274.8014 0001305  73.7277 286.3867 15.30196532100006
STARLINK-31441          
1 60091U 24117A   26086.88655927  .00001714  00000+0  69979-4 0  9999
2 60091  53.1605 312.5202 0001518  88.7495 271.3680 15.30198692 99671
