[{"OBJECT_NAME":"STARLINK-31437","OBJECT_ID":"2024-112V","EPOCH":"2026-03-27T11:04:04.345824","MEAN_MOTION":15.30189866,"ECCENTRICITY":0.0001266,"INCLINATION":53.1619,"RA_OF_ASC_NODE":355.7219,"ARG_OF_PERICENTER":91.4939,"MEAN_ANOMALY":268.6206,"EPHEMERIS_TYPE":0,"CLASSIFICATION_TYPE":"U","NORAD_CAT_ID":60057,"ELEMENT_SET_NO":999,"REV_AT_EPOCH":10131,"BSTAR":3.0688e-5,"MEAN_MOTION_DOT":5.5e-6,"MEAN_MOTION_DDOT":0},{"OBJECT_NAME":"STARLINK-11181 [DTC]","OBJECT_ID":"2024-113A","EPOCH":"2026-03-27T08:28:17.918688","MEAN_MOTION":15.69716555,"ECCENTRICITY":0.0001332,"INCLINATION":53.1588,"RA_OF_ASC_NODE":104.27,"ARG_OF_PERICENTER":100.9791,"MEAN_ANOMALY":259.1377,"EPHEMERIS_TYPE":0,"CLASSIFICATION_TYPE":"U","NORAD_CAT_ID":60059,"ELEMENT_SET_NO":999,"REV_AT_EPOCH":10233,"BSTAR":3.26e-5,"MEAN_MOTION_DOT":3.363e-5,"MEAN_MOTION_DDOT":0},{"OBJECT_NAME":"STARLINK-11176 [DTC]","OBJECT_ID":"2024-113B","EPOCH":"2026-03-27T11:24:36.005472","MEAN_MOTION":15.69737277,"ECCENTRICITY":0.0001188,"INCLINATION":53.1572,"RA_OF_ASC_NODE":103.612,"ARG_OF_PERICENTER":85.5208,"MEAN_ANOMALY":274.5945,"EPHEMERIS_TYPE":0,"CLASSIFICATION_TYPE":"U","NORAD_CAT_ID":60060,"ELEMENT_SET_NO":999,"REV_AT_EPOCH":10235,"BSTAR":0.00023933,"MEAN_MOTION_DOT":0.00028538,"MEAN_MOTION_DDOT":0},{"OBJECT_NAME":"STARLINK-11167 [DTC]","OBJECT_ID":"2024-113C","EPOCH":"2026-03-27T08:14:10.144608","MEAN_MOTION":15.69690098,"ECCENTRICITY":0.0001356,"INCLINATION":53.1593,"RA_OF_ASC_NODE":104.2073,"ARG_OF_PERICENTER":69.6723,"MEAN_ANOMALY":290.444,"EPHEMERIS_TYPE":0,"CLASSIFICATION_TYPE":"U","NORAD_CAT_ID":60061,"ELEMENT_SET_NO":999,"REV_AT_EPOCH":10263,"BSTAR":4.7279e-5,"MEAN_MOTION_DOT":5.138e-5,"MEAN_MOTION_DDOT":0},{"OBJECT_NAME":"STARLINK-11166 [DTC]","OBJECT_ID":"2024-113D","EPOCH":"2026-03-27T11:10:28.245216","MEAN_MOTION":15.69729769,"ECCENTRICITY":0.0001064,"INCLINATION":53.1571,"RA_OF_ASC_NODE":103.5451,"ARG_OF_PERICENTER":75.6317,"MEAN_ANOMALY":284.4819,"EPHEMERIS_TYPE":0,"CLASSIFICATION_TYPE":"U","NORAD_CAT_ID":60062,"ELEMENT_SET_NO":999,"REV_AT_EPOCH":10235,"BSTAR":0.0001563,"MEAN_MOTION_DOT":0.00018403,"MEAN_MOTION_DDOT":0},{"OBJECT_NAME":"STARLINK-11165 [DTC]","OBJECT_ID":"2024-113E","EPOCH":"2026-03-27T08:00:02.564064","MEAN_MOTION":15.69683983,"ECCENTRICITY":0.0001102,"INCLINATION":53.1582,"RA_OF_ASC_NODE":104.1403,"ARG_OF_PERICENTER":72.9093,"MEAN_ANOMALY":287.2046,"EPHEMERIS_TYPE":0,"CLASSIFICATION_TYPE":"U","NORAD_CAT_ID":60063,"ELEMENT_SET_NO":999,"REV_AT_EPOCH":10233,"BSTAR":5.8069e-5,"MEAN_MOTION_DOT":6.444e-5,"MEAN_MOTION_DDOT":0},{"OBJECT_NAME":"STARLINK-11169 [DTC]","OBJECT_ID":"2024-113F","EPOCH":"2026-03-27T10:56:19.987296","MEAN_MOTION":15.69730649,"ECCENTRICITY":0.000119,"INCLINATION":53.1583,"RA_OF_ASC_NODE":103.4777,"ARG_OF_PERICENTER":84.5415,"MEAN_ANOMALY":275.5738,"EPHEMERIS_TYPE":0,"CLASSIFICATION_TYPE":"U","NORAD_CAT_ID":60064,"ELEMENT_SET_NO":999,"REV_AT_EPOCH":10235,"BSTAR":3.0632e-5,"MEAN_MOTION_DOT":3.127e-5,"MEAN_MOTION_DDOT":0},{"OBJECT_NAME":"STARLINK-11102 [DTC]","OBJECT_ID":"2024-113G","EPOCH":"2026-03-27T18:27:42.610752","MEAN_MOTION":15.69702868,"ECCENTRICITY":0.0001332,"INCLINATION":53.1592,"RA_OF_ASC_NODE":101.8772,"ARG_OF_PERICENTER":80.3851,"MEAN_ANOMALY":279.7317,"EPHEMERIS_TYPE":0,"CLASSIFICATION_TYPE":"U","NORAD_CAT_ID":60065,"ELEMENT_SET_NO":999,"REV_AT_EPOCH":10240,"BSTAR":-1.6311e-6,"MEAN_MOTION_DOT":-7.86e-6,"MEAN_MOTION_DDOT":0},{"OBJECT_NAME":"STARLINK-11141 [DTC]","OBJECT_ID":"2024-113H","EPOCH":"2026-03-27T18:20:38.359968","MEAN_MOTION":15.69702789,"ECCENTRICITY":3.17e-5,"INCLINATION":53.1595,"RA_OF_ASC_NODE":101.8438,"ARG_OF_PERICENTER":111.916,"MEAN_ANOMALY":248.1892,"EPHEMERIS_TYPE":0,"CLASSIFICATION_TYPE":"U","NORAD_CAT_ID":60066,"ELEMENT_SET_NO":999,"REV_AT_EPOCH":10240,"BSTAR":-6.2712e-7,"MEAN_MOTION_DOT":-6.63e-6,"MEAN_MOTION_DDOT":0},{"OBJECT_NAME":"STARLINK-11153 [DTC]","OBJECT_ID":"2024-113J","EPOCH":"2026-03-27T07:31:55.953120","MEAN_MOTION":15.69713284,"ECCENTRICITY":0.0001215,"INCLINATION":53.16,"RA_OF_ASC_NODE":104.7435,"ARG_OF_PERICENTER":87.6203,"MEAN_ANOMALY":272.4954,"EPHEMERIS_TYPE":0,"CLASSIFICATION_TYPE":"U","NORAD_CAT_ID":60067,"ELEMENT_SET_NO":999,"REV_AT_EPOCH":10232,"BSTAR":1.0583e-5,"MEAN_MOTION_DOT":6.94e-6,"MEAN_MOTION_DDOT":0},{"OBJECT_NAME":"STARLINK-11170 [DTC]","OBJECT_ID":"2024-113K","EPOCH":"2026-03-27T18:06:39.441024","MEAN_MOTION":15.6971533,"ECCENTRICITY":0.0001387,"INCLINATION":53.1577,"RA_OF_ASC_NODE":102.5139,"ARG_OF_PERICENTER":95.7004,"MEAN_ANOMALY":264.4172,"EPHEMERIS_TYPE":0,"CLASSIFICATION_TYPE":"U","NORAD_CAT_ID":60068,"ELEMENT_SET_NO":999,"REV_AT_EPOCH":10239,"BSTAR":3.9238e-5,"MEAN_MOTION_DOT":4.168e-5,"MEAN_MOTION_DDOT":0},{"OBJECT_NAME":"STARLINK-11171 [DTC]","OBJECT_ID":"2024-113L","EPOCH":"2026-03-27T17:59:35.769120","MEAN_MOTION":15.69709044,"ECCENTRICITY":0.0001643,"INCLINATION":53.1589,"RA_OF_ASC_NODE":102.4799,"ARG_OF_PERICENTER":84.5968,"MEAN_ANOMALY":275.5237,"EPHEMERIS_TYPE":0,"CLASSIFICATION_TYPE":"U","NORAD_CAT_ID":60069,"ELEMENT_SET_NO":999,"REV_AT_EPOCH":10239,"BSTAR":7.2696e-7,"MEAN_MOTION_DOT":-5.01e-6,"MEAN_MOTION_DDOT":0},{"OBJECT_NAME":"STARLINK-11186 [DTC]","OBJECT_ID":"2024-113M","EPOCH":"2026-03-27T07:10:43.373568","MEAN_MOTION":15.69733789,"ECCENTRICITY":0.0001106,"INCLINATION":53.1579,"RA_OF_ASC_NODE":104.6454,"ARG_OF_PERICENTER":73.2771,"MEAN_ANOMALY":286.8368,"EPHEMERIS_TYPE":0,"CLASSIFICATION_TYPE":"U","NORAD_CAT_ID":60070,"ELEMENT_SET_NO":999,"REV_AT_EPOCH":10273,"BSTAR":-7.0838e-5,"MEAN_MOTION_DOT":-9.17e-5,"MEAN_MOTION_DDOT":0},{"OBJECT_NAME":"STARLINK-11184 [DTC]","OBJECT_ID":"2024-113N","EPOCH":"2026-03-27T17:45:28.573056","MEAN_MOTION":15.69713227,"ECCENTRICITY":0.000211,"INCLINATION":53.1577,"RA_OF_ASC_NODE":102.453,"ARG_OF_PERICENTER":76.3496,"MEAN_ANOMALY":283.7757,"EPHEMERIS_TYPE":0,"CLASSIFICATION_TYPE":"U","NORAD_CAT_ID":60071,"ELEMENT_SET_NO":999,"REV_AT_EPOCH":10239,"BSTAR":9.3723e-5,"MEAN_MOTION_DOT":0.00010781,"MEAN_MOTION_DDOT":0},{"OBJECT_NAME":"STARLINK-32032","OBJECT_ID":"2024-113U","EPOCH":"2026-03-27T18:42:36.717696","MEAN_MOTION":15.30196532,"ECCENTRICITY":0.0001305,"INCLINATION":53.1597,"RA_OF_ASC_NODE":274.8014,"ARG_OF_PERICENTER":73.7277,"MEAN_ANOMALY":286.3867,"EPHEMERIS_TYPE":0,"CLASSIFICATION_TYPE":"U","NORAD_CAT_ID":60077,"ELEMENT_SET_NO":999,"REV_AT_EPOCH":10000,"BSTAR":-9.6684e-5,"MEAN_MOTION_DOT":-3.221e-5,"MEAN_MOTION_DDOT":0},{"OBJECT_NAME":"STARLINK-31441","OBJECT_ID":"2024-117A","EPOCH":"2026-03-27T21:16:38.720928","MEAN_MOTION":15.30198692,"ECCENTRICITY":0.0001518,"INCLINATION":53.1605,"RA_OF_ASC_NODE":312.5202,"ARG_OF_PERICENTER":88.7495,"MEAN_ANOMALY":271.368,"EPHEMERIS_TYPE":0,"CLASSIFICATION_TYPE":"U","NORAD_CAT_ID":60091,"ELEMENT_SET_NO":999,"REV_AT_EPOCH":9967,"BSTAR":6.9979e-5,"MEAN_MOTION_DOT":1.714e-5,"MEAN_MOTION_DDOT":0}]
